CYGNUS NG-23            
1 65616U 25208A   26014.62805721  .00006818  00000+0  13044-3 0  9992
2 65616  51.6333 339.6562 0007763  17.9854 342.1408 15.49289811   222
DRAGONFLY               
1 65729U 98067XH  26014.14161089  .00306440  00000+0  10229-2 0  9994
2 65729  51.6210 328.0787 0007988 107.8610 252.3267 15.88809405 18280
1998-067XK              
1 65731U 98067XK  26014.27267001  .00102625  00000+0  71073-3 0  9996
2 65731  51.6282 331.2726 0004830  79.0136 281.1406 15.73668329 18251
RSP-03                  
1 65732U 98067XL  26014.25265592  .00165783  00000+0  86153-3 0  9997
2 65732  51.6257 329.6097 0005864  87.9483 272.2190 15.79933026 18286
GHS-01                  
1 65733U 98067XM  26014.22423890  .00764699  28839-3  13028-2 0  9997
2 65733  51.6220 325.6179 0007844 124.1093 236.0662 16.01928812 18336
YOTSUBA-KULOVER         
1 65941U 98067XN  26014.27826803  .00061553  00000+0  62041-3 0  9999
2 65941  51.6292 335.8225 0004077 102.6207 257.5244 15.64781425 14946
BOTAN                   
1 65942U 98067XP  26014.18145836  .00110159  00000+0  83178-3 0  9991
2 65942  51.6262 334.4147 0004802 100.6550 259.4989 15.71604384 14951
E-KAGAKU-1              
1 65943U 98067XQ  26014.27817244  .00060017  00000+0  60563-3 0  9991
2 65943  51.6306 335.8283 0002683 102.0285 258.1011 15.64767844 14947
HRC MONOBLOCK CAMERA    
1 66052U 98067XR  26014.29076440  .00026465  00000+0  37016-3 0  9996
2 66052  51.6307 338.9068 0001127   0.6803 359.4190 15.56630202 13902
HTV-X1                  
1 66174U 25241A   26014.62805721  .00006818  00000+0  13044-3 0  9999
2 66174  51.6333 339.6562 0007763  17.9854 342.1408 15.49289811   514
SZ-21 MODULE            
1 66515U 25246C   26014.50013990  .00022256  00000+0  22760-3 0  9998
2 66515  41.4740 175.9087 0002003 169.7088 190.3794 15.64482120  9573
SHENZHOU-22             
1 66645U 25272A   26014.49535826  .00012503  00000+0  15081-3 0  9998
2 66645  41.4650 177.6413 0011421 283.7377  76.2190 15.60505060267642
