CCSDS_OMM_VERS = 2.0
CREATION_DATE  = 
ORIGINATOR     = 

OBJECT_NAME    = CYGNUS NG-23
OBJECT_ID      = 2025-208A
CENTER_NAME    = EARTH
REF_FRAME      = TEME
TIME_SYSTEM    = UTC
MEAN_ELEMENT_THEORY = SGP/SGP4

EPOCH          = 2026-01-14T15:04:24.142944
MEAN_MOTION    = 15.49289811
ECCENTRICITY   = .00077638
INCLINATION    = 51.6333
RA_OF_ASC_NODE = 339.6562
ARG_OF_PERICENTER = 17.9854
MEAN_ANOMALY   = 342.1408

EPHEMERIS_TYPE = 0
CLASSIFICATION_TYPE = U
NORAD_CAT_ID   = 65616
ELEMENT_SET_NO = 999
REV_AT_EPOCH   = 22
BSTAR          = .13043682E-3
MEAN_MOTION_DOT = .6818E-4
MEAN_MOTION_DDOT = 0

CCSDS_OMM_VERS = 2.0
CREATION_DATE  = 
ORIGINATOR     = 

OBJECT_NAME    = DRAGONFLY
OBJECT_ID      = 1998-067XH
CENTER_NAME    = EARTH
REF_FRAME      = TEME
TIME_SYSTEM    = UTC
MEAN_ELEMENT_THEORY = SGP/SGP4

EPOCH          = 2026-01-14T03:23:55.180896
MEAN_MOTION    = 15.88809405
ECCENTRICITY   = .00079887
INCLINATION    = 51.6210
RA_OF_ASC_NODE = 328.0787
ARG_OF_PERICENTER = 107.8610
MEAN_ANOMALY   = 252.3267

EPHEMERIS_TYPE = 0
CLASSIFICATION_TYPE = U
NORAD_CAT_ID   = 65729
ELEMENT_SET_NO = 999
REV_AT_EPOCH   = 1828
BSTAR          = .10228988E-2
MEAN_MOTION_DOT = .30644E-2
MEAN_MOTION_DDOT = 0

CCSDS_OMM_VERS = 2.0
CREATION_DATE  = 
ORIGINATOR     = 

OBJECT_NAME    = 1998-067XK
OBJECT_ID      = 1998-067XK
CENTER_NAME    = EARTH
REF_FRAME      = TEME
TIME_SYSTEM    = UTC
MEAN_ELEMENT_THEORY = SGP/SGP4

EPOCH          = 2026-01-14T06:32:38.688864
MEAN_MOTION    = 15.73668329
ECCENTRICITY   = .00048309
INCLINATION    = 51.6282
RA_OF_ASC_NODE = 331.2726
ARG_OF_PERICENTER = 79.0136
MEAN_ANOMALY   = 281.1406

EPHEMERIS_TYPE = 0
CLASSIFICATION_TYPE = U
NORAD_CAT_ID   = 65731
ELEMENT_SET_NO = 999
REV_AT_EPOCH   = 1825
BSTAR          = .71072875E-3
MEAN_MOTION_DOT = .102625E-2
MEAN_MOTION_DDOT = 0

CCSDS_OMM_VERS = 2.0
CREATION_DATE  = 
ORIGINATOR     = 

OBJECT_NAME    = RSP-03
OBJECT_ID      = 1998-067XL
CENTER_NAME    = EARTH
REF_FRAME      = TEME
TIME_SYSTEM    = UTC
MEAN_ELEMENT_THEORY = SGP/SGP4

EPOCH          = 2026-01-14T06:03:49.471488
MEAN_MOTION    = 15.79933026
ECCENTRICITY   = .00058649
INCLINATION    = 51.6257
RA_OF_ASC_NODE = 329.6097
ARG_OF_PERICENTER = 87.9483
MEAN_ANOMALY   = 272.2190

EPHEMERIS_TYPE = 0
CLASSIFICATION_TYPE = U
NORAD_CAT_ID   = 65732
ELEMENT_SET_NO = 999
REV_AT_EPOCH   = 1828
BSTAR          = .86152727E-3
MEAN_MOTION_DOT = .165783E-2
MEAN_MOTION_DDOT = 0

CCSDS_OMM_VERS = 2.0
CREATION_DATE  = 
ORIGINATOR     = 

OBJECT_NAME    = GHS-01
OBJECT_ID      = 1998-067XM
CENTER_NAME    = EARTH
REF_FRAME      = TEME
TIME_SYSTEM    = UTC
MEAN_ELEMENT_THEORY = SGP/SGP4

EPOCH          = 2026-01-14T05:22:54.240960
MEAN_MOTION    = 16.01928812
ECCENTRICITY   = .00078441
INCLINATION    = 51.6220
RA_OF_ASC_NODE = 325.6179
ARG_OF_PERICENTER = 124.1093
MEAN_ANOMALY   = 236.0662

EPHEMERIS_TYPE = 0
CLASSIFICATION_TYPE = U
NORAD_CAT_ID   = 65733
ELEMENT_SET_NO = 999
REV_AT_EPOCH   = 1833
BSTAR          = .13028289E-2
MEAN_MOTION_DOT = .764699E-2
MEAN_MOTION_DDOT = .28838864E-3

CCSDS_OMM_VERS = 2.0
CREATION_DATE  = 
ORIGINATOR     = 

OBJECT_NAME    = YOTSUBA-KULOVER
OBJECT_ID      = 1998-067XN
CENTER_NAME    = EARTH
REF_FRAME      = TEME
TIME_SYSTEM    = UTC
MEAN_ELEMENT_THEORY = SGP/SGP4

EPOCH          = 2026-01-14T06:40:42.357792
MEAN_MOTION    = 15.64781425
ECCENTRICITY   = .0004077
INCLINATION    = 51.6292
RA_OF_ASC_NODE = 335.8225
ARG_OF_PERICENTER = 102.6207
MEAN_ANOMALY   = 257.5244

EPHEMERIS_TYPE = 0
CLASSIFICATION_TYPE = U
NORAD_CAT_ID   = 65941
ELEMENT_SET_NO = 999
REV_AT_EPOCH   = 1494
BSTAR          = .62040984E-3
MEAN_MOTION_DOT = .61553E-3
MEAN_MOTION_DDOT = 0

CCSDS_OMM_VERS = 2.0
CREATION_DATE  = 
ORIGINATOR     = 

OBJECT_NAME    = BOTAN
OBJECT_ID      = 1998-067XP
CENTER_NAME    = EARTH
REF_FRAME      = TEME
TIME_SYSTEM    = UTC
MEAN_ELEMENT_THEORY = SGP/SGP4

EPOCH          = 2026-01-14T04:21:18.002304
MEAN_MOTION    = 15.71604384
ECCENTRICITY   = .00048026
INCLINATION    = 51.6262
RA_OF_ASC_NODE = 334.4147
ARG_OF_PERICENTER = 100.6550
MEAN_ANOMALY   = 259.4989

EPHEMERIS_TYPE = 0
CLASSIFICATION_TYPE = U
NORAD_CAT_ID   = 65942
ELEMENT_SET_NO = 999
REV_AT_EPOCH   = 1495
BSTAR          = .83177755E-3
MEAN_MOTION_DOT = .110159E-2
MEAN_MOTION_DDOT = 0

CCSDS_OMM_VERS = 2.0
CREATION_DATE  = 
ORIGINATOR     = 

OBJECT_NAME    = E-KAGAKU-1
OBJECT_ID      = 1998-067XQ
CENTER_NAME    = EARTH
REF_FRAME      = TEME
TIME_SYSTEM    = UTC
MEAN_ELEMENT_THEORY = SGP/SGP4

EPOCH          = 2026-01-14T06:40:34.098816
MEAN_MOTION    = 15.64767844
ECCENTRICITY   = .00026838
INCLINATION    = 51.6306
RA_OF_ASC_NODE = 335.8283
ARG_OF_PERICENTER = 102.0285
MEAN_ANOMALY   = 258.1011

EPHEMERIS_TYPE = 0
CLASSIFICATION_TYPE = U
NORAD_CAT_ID   = 65943
ELEMENT_SET_NO = 999
REV_AT_EPOCH   = 1494
BSTAR          = .60563019E-3
MEAN_MOTION_DOT = .60017E-3
MEAN_MOTION_DDOT = 0

CCSDS_OMM_VERS = 2.0
CREATION_DATE  = 
ORIGINATOR     = 

OBJECT_NAME    = HRC MONOBLOCK CAMERA
OBJECT_ID      = 1998-067XR
CENTER_NAME    = EARTH
REF_FRAME      = TEME
TIME_SYSTEM    = UTC
MEAN_ELEMENT_THEORY = SGP/SGP4

EPOCH          = 2026-01-14T06:58:42.044160
MEAN_MOTION    = 15.56630202
ECCENTRICITY   = .00011278
INCLINATION    = 51.6307
RA_OF_ASC_NODE = 338.9068
ARG_OF_PERICENTER = 0.6803
MEAN_ANOMALY   = 359.4190

EPHEMERIS_TYPE = 0
CLASSIFICATION_TYPE = U
NORAD_CAT_ID   = 66052
ELEMENT_SET_NO = 999
REV_AT_EPOCH   = 1390
BSTAR          = .37016407E-3
MEAN_MOTION_DOT = .26465E-3
MEAN_MOTION_DDOT = 0

CCSDS_OMM_VERS = 2.0
CREATION_DATE  = 
ORIGINATOR     = 

OBJECT_NAME    = HTV-X1
OBJECT_ID      = 2025-241A
CENTER_NAME    = EARTH
REF_FRAME      = TEME
TIME_SYSTEM    = UTC
MEAN_ELEMENT_THEORY = SGP/SGP4

EPOCH          = 2026-01-14T15:04:24.142944
MEAN_MOTION    = 15.49289811
ECCENTRICITY   = .00077638
INCLINATION    = 51.6333
RA_OF_ASC_NODE = 339.6562
ARG_OF_PERICENTER = 17.9854
MEAN_ANOMALY   = 342.1408

EPHEMERIS_TYPE = 0
CLASSIFICATION_TYPE = U
NORAD_CAT_ID   = 66174
ELEMENT_SET_NO = 999
REV_AT_EPOCH   = 51
BSTAR          = .13043682E-3
MEAN_MOTION_DOT = .6818E-4
MEAN_MOTION_DDOT = 0

CCSDS_OMM_VERS = 2.0
CREATION_DATE  = 
ORIGINATOR     = 

OBJECT_NAME    = SZ-21 MODULE
OBJECT_ID      = 2025-246C
CENTER_NAME    = EARTH
REF_FRAME      = TEME
TIME_SYSTEM    = UTC
MEAN_ELEMENT_THEORY = SGP/SGP4

EPOCH          = 2026-01-14T12:00:12.087360
MEAN_MOTION    = 15.64482120
ECCENTRICITY   = .00020031
INCLINATION    = 41.4740
RA_OF_ASC_NODE = 175.9087
ARG_OF_PERICENTER = 169.7088
MEAN_ANOMALY   = 190.3794

EPHEMERIS_TYPE = 0
CLASSIFICATION_TYPE = U
NORAD_CAT_ID   = 66515
ELEMENT_SET_NO = 999
REV_AT_EPOCH   = 957
BSTAR          = .22760418E-3
MEAN_MOTION_DOT = .22256E-3
MEAN_MOTION_DDOT = 0

CCSDS_OMM_VERS = 2.0
CREATION_DATE  = 
ORIGINATOR     = 

OBJECT_NAME    = SHENZHOU-22
OBJECT_ID      = 2025-272A
CENTER_NAME    = EARTH
REF_FRAME      = TEME
TIME_SYSTEM    = UTC
MEAN_ELEMENT_THEORY = SGP/SGP4

EPOCH          = 2026-01-14T11:53:18.953664
MEAN_MOTION    = 15.60505060
ECCENTRICITY   = .00114215
INCLINATION    = 41.4650
RA_OF_ASC_NODE = 177.6413
ARG_OF_PERICENTER = 283.7377
MEAN_ANOMALY   = 76.2190

EPHEMERIS_TYPE = 0
CLASSIFICATION_TYPE = U
NORAD_CAT_ID   = 66645
ELEMENT_SET_NO = 999
REV_AT_EPOCH   = 26764
BSTAR          = .15080508E-3
MEAN_MOTION_DOT = .12503E-3
MEAN_MOTION_DDOT = 0

